CCSDS_OMM_VERS = 2.0
CREATION_DATE  = 
ORIGINATOR     = 

OBJECT_NAME    = COSMOS 2600
OBJECT_ID      = 2026-023A
CENTER_NAME    = EARTH
REF_FRAME      = TEME
TIME_SYSTEM    = UTC
MEAN_ELEMENT_THEORY = SGP/SGP4

EPOCH          = 2026-03-04T18:48:40.457376
MEAN_MOTION    = 15.83225354
ECCENTRICITY   = .0002247
INCLINATION    = 96.6435
RA_OF_ASC_NODE = 139.5819
ARG_OF_PERICENTER = 356.6752
MEAN_ANOMALY   = 3.4504

EPHEMERIS_TYPE = 0
CLASSIFICATION_TYPE = U
NORAD_CAT_ID   = 67674
ELEMENT_SET_NO = 999
REV_AT_EPOCH   = 427
BSTAR          = .39346E-3
MEAN_MOTION_DOT = .84921E-3
MEAN_MOTION_DDOT = 0

CCSDS_OMM_VERS = 2.0
CREATION_DATE  = 
ORIGINATOR     = 

OBJECT_NAME    = 2026-023B
OBJECT_ID      = 2026-023B
CENTER_NAME    = EARTH
REF_FRAME      = TEME
TIME_SYSTEM    = UTC
MEAN_ELEMENT_THEORY = SGP/SGP4

EPOCH          = 2026-03-04T09:33:11.899296
MEAN_MOTION    = 15.22849981
ECCENTRICITY   = .00192324
INCLINATION    = 96.6368
RA_OF_ASC_NODE = 136.9588
ARG_OF_PERICENTER = 149.8660
MEAN_ANOMALY   = 210.3690

EPHEMERIS_TYPE = 0
CLASSIFICATION_TYPE = U
NORAD_CAT_ID   = 67675
ELEMENT_SET_NO = 999
REV_AT_EPOCH   = 405
BSTAR          = .75835034E-3
MEAN_MOTION_DOT = .17809E-3
MEAN_MOTION_DDOT = 0

CCSDS_OMM_VERS = 2.0
CREATION_DATE  = 
ORIGINATOR     = 

OBJECT_NAME    = 2026-023C
OBJECT_ID      = 2026-023C
CENTER_NAME    = EARTH
REF_FRAME      = TEME
TIME_SYSTEM    = UTC
MEAN_ELEMENT_THEORY = SGP/SGP4

EPOCH          = 2026-03-04T11:05:54.862656
MEAN_MOTION    = 15.22954337
ECCENTRICITY   = .00202975
INCLINATION    = 96.6403
RA_OF_ASC_NODE = 137.0391
ARG_OF_PERICENTER = 140.0758
MEAN_ANOMALY   = 220.1978

EPHEMERIS_TYPE = 0
CLASSIFICATION_TYPE = U
NORAD_CAT_ID   = 67676
ELEMENT_SET_NO = 999
REV_AT_EPOCH   = 422
BSTAR          = .77492623E-3
MEAN_MOTION_DOT = .18268E-3
MEAN_MOTION_DDOT = 0

CCSDS_OMM_VERS = 2.0
CREATION_DATE  = 
ORIGINATOR     = 

OBJECT_NAME    = 2026-023D
OBJECT_ID      = 2026-023D
CENTER_NAME    = EARTH
REF_FRAME      = TEME
TIME_SYSTEM    = UTC
MEAN_ELEMENT_THEORY = SGP/SGP4

EPOCH          = 2026-03-04T11:09:29.614176
MEAN_MOTION    = 15.22772595
ECCENTRICITY   = .00205127
INCLINATION    = 96.6434
RA_OF_ASC_NODE = 137.0274
ARG_OF_PERICENTER = 144.9251
MEAN_ANOMALY   = 215.3343

EPHEMERIS_TYPE = 0
CLASSIFICATION_TYPE = U
NORAD_CAT_ID   = 67677
ELEMENT_SET_NO = 999
REV_AT_EPOCH   = 405
BSTAR          = .74038565E-3
MEAN_MOTION_DOT = .17357E-3
MEAN_MOTION_DDOT = 0

CCSDS_OMM_VERS = 2.0
CREATION_DATE  = 
ORIGINATOR     = 

OBJECT_NAME    = 2026-023F
OBJECT_ID      = 2026-023F
CENTER_NAME    = EARTH
REF_FRAME      = TEME
TIME_SYSTEM    = UTC
MEAN_ELEMENT_THEORY = SGP/SGP4

EPOCH          = 2026-03-04T20:30:35.217792
MEAN_MOTION    = 15.23108492
ECCENTRICITY   = .0022154
INCLINATION    = 96.6333
RA_OF_ASC_NODE = 139.8569
ARG_OF_PERICENTER = 137.9247
MEAN_ANOMALY   = 222.3698

EPHEMERIS_TYPE = 0
CLASSIFICATION_TYPE = U
NORAD_CAT_ID   = 67679
ELEMENT_SET_NO = 999
REV_AT_EPOCH   = 410
BSTAR          = .78271E-3
MEAN_MOTION_DOT = .18557E-3
MEAN_MOTION_DDOT = 0

CCSDS_OMM_VERS = 2.0
CREATION_DATE  = 
ORIGINATOR     = 

OBJECT_NAME    = 2026-023H
OBJECT_ID      = 2026-023H
CENTER_NAME    = EARTH
REF_FRAME      = TEME
TIME_SYSTEM    = UTC
MEAN_ELEMENT_THEORY = SGP/SGP4

EPOCH          = 2026-03-04T17:22:34.439808
MEAN_MOTION    = 15.22993227
ECCENTRICITY   = .0023811
INCLINATION    = 96.6407
RA_OF_ASC_NODE = 139.7545
ARG_OF_PERICENTER = 134.4058
MEAN_ANOMALY   = 225.9135

EPHEMERIS_TYPE = 0
CLASSIFICATION_TYPE = U
NORAD_CAT_ID   = 67681
ELEMENT_SET_NO = 999
REV_AT_EPOCH   = 408
BSTAR          = .65205E-3
MEAN_MOTION_DOT = .15407E-3
MEAN_MOTION_DDOT = 0

CCSDS_OMM_VERS = 2.0
CREATION_DATE  = 
ORIGINATOR     = 

OBJECT_NAME    = 2026-023J
OBJECT_ID      = 2026-023J
CENTER_NAME    = EARTH
REF_FRAME      = TEME
TIME_SYSTEM    = UTC
MEAN_ELEMENT_THEORY = SGP/SGP4

EPOCH          = 2026-03-04T20:30:06.735168
MEAN_MOTION    = 15.23102960
ECCENTRICITY   = .0023894
INCLINATION    = 96.6360
RA_OF_ASC_NODE = 139.8749
ARG_OF_PERICENTER = 130.7797
MEAN_ANOMALY   = 229.5520

EPHEMERIS_TYPE = 0
CLASSIFICATION_TYPE = U
NORAD_CAT_ID   = 67682
ELEMENT_SET_NO = 999
REV_AT_EPOCH   = 410
BSTAR          = .78472E-3
MEAN_MOTION_DOT = .18623E-3
MEAN_MOTION_DDOT = 0

CCSDS_OMM_VERS = 2.0
CREATION_DATE  = 
ORIGINATOR     = 

OBJECT_NAME    = ISS OBJECT XZ
OBJECT_ID      = 1998-067XZ
CENTER_NAME    = EARTH
REF_FRAME      = TEME
TIME_SYSTEM    = UTC
MEAN_ELEMENT_THEORY = SGP/SGP4

EPOCH          = 2026-03-04T07:37:01.846272
MEAN_MOTION    = 15.51337660
ECCENTRICITY   = .00094914
INCLINATION    = 51.6304
RA_OF_ASC_NODE = 98.5346
ARG_OF_PERICENTER = 167.7937
MEAN_ANOMALY   = 192.3284

EPHEMERIS_TYPE = 0
CLASSIFICATION_TYPE = U
NORAD_CAT_ID   = 67683
ELEMENT_SET_NO = 999
REV_AT_EPOCH   = 395
BSTAR          = .87420501E-3
MEAN_MOTION_DOT = .52289E-3
MEAN_MOTION_DDOT = 0

CCSDS_OMM_VERS = 2.0
CREATION_DATE  = 
ORIGINATOR     = 

OBJECT_NAME    = GXIBA-1
OBJECT_ID      = 1998-067YA
CENTER_NAME    = EARTH
REF_FRAME      = TEME
TIME_SYSTEM    = UTC
MEAN_ELEMENT_THEORY = SGP/SGP4

EPOCH          = 2026-03-04T08:41:37.516992
MEAN_MOTION    = 15.53373762
ECCENTRICITY   = .0010966
INCLINATION    = 51.6304
RA_OF_ASC_NODE = 98.0837
ARG_OF_PERICENTER = 158.3351
MEAN_ANOMALY   = 201.8106

EPHEMERIS_TYPE = 0
CLASSIFICATION_TYPE = U
NORAD_CAT_ID   = 67684
ELEMENT_SET_NO = 999
REV_AT_EPOCH   = 396
BSTAR          = .15927729E-2
MEAN_MOTION_DOT = .103687E-2
MEAN_MOTION_DDOT = 0

CCSDS_OMM_VERS = 2.0
CREATION_DATE  = 
ORIGINATOR     = 

OBJECT_NAME    = CORAL
OBJECT_ID      = 1998-067YB
CENTER_NAME    = EARTH
REF_FRAME      = TEME
TIME_SYSTEM    = UTC
MEAN_ELEMENT_THEORY = SGP/SGP4

EPOCH          = 2026-03-04T07:32:17.590272
MEAN_MOTION    = 15.51642058
ECCENTRICITY   = .00113986
INCLINATION    = 51.6305
RA_OF_ASC_NODE = 98.5128
ARG_OF_PERICENTER = 164.0725
MEAN_ANOMALY   = 196.0625

EPHEMERIS_TYPE = 0
CLASSIFICATION_TYPE = U
NORAD_CAT_ID   = 67685
ELEMENT_SET_NO = 999
REV_AT_EPOCH   = 395
BSTAR          = .95212079E-3
MEAN_MOTION_DOT = .57704E-3
MEAN_MOTION_DDOT = 0

